start=new Date('2023-01-25T00:00:00.000Z').valueOf();
sats=[{"PERIAPSIS":"538.798","APOAPSIS":"540.656","CLASSIFICATION_TYPE":"U","REF_FRAME":"TEME","MEAN_MOTION_DOT":"0.00005375","TLE_LINE2":"2 51883  53.2160  77.8876 0001343  92.6396 267.4749 15.08845978 51104","TIME_SYSTEM":"UTC","DECAY_DATE":null,"RCS_SIZE":"LARGE","OBJECT_ID":"2022-022AH","COUNTRY_CODE":"US","OBJECT_NAME":"STARLINK-3576","ECCENTRICITY":"0.00013430","MEAN_MOTION":"15.08845978","REV_AT_EPOCH":"5110","LAUNCH_DATE":"2022-03-03","BSTAR":"0.00035547000000","TLE_LINE1":"1 51883U 22022AH  23024.44433053  .00005375  00000-0  35547-3 0  9997","INCLINATION":"53.2160","GP_ID":"223637145","EPHEMERIS_TYPE":"0","ELEMENT_SET_NO":"999","NORAD_CAT_ID":"51883","MEAN_ANOMALY":"267.4749","RA_OF_ASC_NODE":"77.8876","SEMIMAJOR_AXIS":"6917.862","EPOCH":"2023-01-24T10:39:50.157792","FILE":"3759903","OBJECT_TYPE":"PAYLOAD","MEAN_MOTION_DDOT":"0.0000000000000","CENTER_NAME":"EARTH","ARG_OF_PERICENTER":"92.6396","MEAN_ELEMENT_THEORY":"SGP4","PERIOD":"95.437","SITE":"AFETR"},{"APOAPSIS":"540.425","CLASSIFICATION_TYPE":"U","REF_FRAME":"TEME","PERIAPSIS":"539.019","TIME_SYSTEM":"UTC","DECAY_DATE":null,"RCS_SIZE":"LARGE","OBJECT_ID":"2022-022AJ","MEAN_MOTION_DOT":"0.00006807","TLE_LINE2":"2 51884  53.2162  77.5411 0001016  95.7931 264.3176 15.08847692 51201","OBJECT_NAME":"STARLINK-3577","ECCENTRICITY":"0.00010160","MEAN_MOTION":"15.08847692","REV_AT_EPOCH":"5120","LAUNCH_DATE":"2022-03-03","COUNTRY_CODE":"US","TLE_LINE1":"1 51884U 22022AJ  23024.52065442  .00006807  00000-0  44527-3 0  9999","BSTAR":"0.00044527000000","EPHEMERIS_TYPE":"0","GP_ID":"223635630","ELEMENT_SET_NO":"999","INCLINATION":"53.2162","RA_OF_ASC_NODE":"77.5411","SEMIMAJOR_AXIS":"6917.857","NORAD_CAT_ID":"51884","MEAN_ANOMALY":"264.3176","FILE":"3759851","EPOCH":"2023-01-24T12:29:44.541888","ARG_OF_PERICENTER":"95.7931","PERIOD":"95.437","MEAN_ELEMENT_THEORY":"SGP4","SITE":"AFETR","OBJECT_TYPE":"PAYLOAD","MEAN_MOTION_DDOT":"0.0000000000000","CENTER_NAME":"EARTH"},{"MEAN_ELEMENT_THEORY":"SGP4","PERIOD":"95.437","SITE":"AFETR","ARG_OF_PERICENTER":"108.9522","MEAN_MOTION_DDOT":"0.0000000000000","CENTER_NAME":"EARTH","OBJECT_TYPE":"PAYLOAD","FILE":"3759851","EPOCH":"2023-01-24T10:33:09.535680","RA_OF_ASC_NODE":"77.9129","SEMIMAJOR_AXIS":"6917.854","NORAD_CAT_ID":"51885","MEAN_ANOMALY":"251.1568","GP_ID":"223635624","EPHEMERIS_TYPE":"0","ELEMENT_SET_NO":"999","INCLINATION":"53.2146","TLE_LINE1":"1 51885U 22022AK  23024.43969370  .00026661  00000-0  16865-2 0  9996","BSTAR":"0.00168650000000","REV_AT_EPOCH":"5110","LAUNCH_DATE":"2022-03-03","OBJECT_NAME":"STARLINK-3584","ECCENTRICITY":"0.00009070","MEAN_MOTION":"15.08848745","COUNTRY_CODE":"US","RCS_SIZE":"LARGE","DECAY_DATE":null,"OBJECT_ID":"2022-022AK","TIME_SYSTEM":"UTC","TLE_LINE2":"2 51885  53.2146  77.9129 0000907 108.9522 251.1568 15.08848745 51103","MEAN_MOTION_DOT":"0.00026661","REF_FRAME":"TEME","APOAPSIS":"540.346","CLASSIFICATION_TYPE":"U","PERIAPSIS":"539.091"},{"OBJECT_NAME":"STARLINK-3565","MEAN_MOTION":"15.08844349","ECCENTRICITY":"0.00015000","REV_AT_EPOCH":"5107","LAUNCH_DATE":"2022-03-03","COUNTRY_CODE":"US","TLE_LINE1":"1 51886U 22022AL  23024.18209921  .00010709  00000-0  68983-3 0  9993","BSTAR":"0.00068983000000","APOAPSIS":"540.770","CLASSIFICATION_TYPE":"U","REF_FRAME":"TEME","PERIAPSIS":"538.694","TIME_SYSTEM":"UTC","RCS_SIZE":"LARGE","DECAY_DATE":null,"OBJECT_ID":"2022-022AL","MEAN_MOTION_DOT":"0.00010709","TLE_LINE2":"2 51886  53.2153  79.0658 0001500  63.4038 296.7107 15.08844349 51075","FILE":"3759586","EPOCH":"2023-01-24T04:22:13.371744","ARG_OF_PERICENTER":"63.4038","PERIOD":"95.437","MEAN_ELEMENT_THEORY":"SGP4","SITE":"AFETR","OBJECT_TYPE":"PAYLOAD","MEAN_MOTION_DDOT":"0.0000000000000","CENTER_NAME":"EARTH","EPHEMERIS_TYPE":"0","GP_ID":"223629908","ELEMENT_SET_NO":"999","INCLINATION":"53.2153","RA_OF_ASC_NODE":"79.0658","SEMIMAJOR_AXIS":"6917.867","NORAD_CAT_ID":"51886","MEAN_ANOMALY":"296.7107"},{"SEMIMAJOR_AXIS":"6917.876","RA_OF_ASC_NODE":"79.1139","NORAD_CAT_ID":"51887","MEAN_ANOMALY":"272.2952","GP_ID":"223629909","EPHEMERIS_TYPE":"0","ELEMENT_SET_NO":"999","INCLINATION":"53.2161","ARG_OF_PERICENTER":"87.8230","MEAN_ELEMENT_THEORY":"SGP4","PERIOD":"95.437","SITE":"AFETR","OBJECT_TYPE":"PAYLOAD","MEAN_MOTION_DDOT":"0.0000000000000","CENTER_NAME":"EARTH","FILE":"3759586","EPOCH":"2023-01-24T04:06:19.391328","TIME_SYSTEM":"UTC","DECAY_DATE":null,"RCS_SIZE":"LARGE","OBJECT_ID":"2022-022AM","MEAN_MOTION_DOT":"0.00006252","TLE_LINE2":"2 51887  53.2161  79.1139 0001657  87.8230 272.2952 15.08841506 51065","APOAPSIS":"540.887","CLASSIFICATION_TYPE":"U","REF_FRAME":"TEME","PERIAPSIS":"538.594","TLE_LINE1":"1 51887U 22022AM  23024.17105777  .00006252  00000-0  41054-3 0  9995","BSTAR":"0.00041054000000","OBJECT_NAME":"STARLINK-3551","ECCENTRICITY":"0.00016570","MEAN_MOTION":"15.08841506","REV_AT_EPOCH":"5106","LAUNCH_DATE":"2022-03-03","COUNTRY_CODE":"US"},{"BSTAR":"0.00201250000000","TLE_LINE1":"1 51888U 22022AN  23024.17843088  .00031911  00000-0  20125-2 0  9995","COUNTRY_CODE":"US","LAUNCH_DATE":"2022-03-03","REV_AT_EPOCH":"5107","MEAN_MOTION":"15.08868003","ECCENTRICITY":"0.00014610","OBJECT_NAME":"STARLINK-3536","TLE_LINE2":"2 51888  53.2158  79.0780 0001461  81.2907 278.8251 15.08868003 51071","MEAN_MOTION_DOT":"0.00031911","OBJECT_ID":"2022-022AN","RCS_SIZE":"LARGE","DECAY_DATE":null,"TIME_SYSTEM":"UTC","PERIAPSIS":"538.649","REF_FRAME":"TEME","CLASSIFICATION_TYPE":"U","APOAPSIS":"540.670","CENTER_NAME":"EARTH","MEAN_MOTION_DDOT":"0.0000000000000","OBJECT_TYPE":"PAYLOAD","SITE":"AFETR","MEAN_ELEMENT_THEORY":"SGP4","PERIOD":"95.436","ARG_OF_PERICENTER":"81.2907","EPOCH":"2023-01-24T04:16:56.428032","FILE":"3759591","MEAN_ANOMALY":"278.8251","NORAD_CAT_ID":"51888","RA_OF_ASC_NODE":"79.0780","SEMIMAJOR_AXIS":"6917.795","INCLINATION":"53.2158","ELEMENT_SET_NO":"999","GP_ID":"223629932","EPHEMERIS_TYPE":"0"},{"EPOCH":"2023-01-24T03:50:25.561248","FILE":"3759591","MEAN_MOTION_DDOT":"0.0000000000000","CENTER_NAME":"EARTH","OBJECT_TYPE":"PAYLOAD","MEAN_ELEMENT_THEORY":"SGP4","PERIOD":"95.438","SITE":"AFETR","ARG_OF_PERICENTER":"89.1334","INCLINATION":"53.2147","GP_ID":"223630385","EPHEMERIS_TYPE":"0","ELEMENT_SET_NO":"999","NORAD_CAT_ID":"51889","MEAN_ANOMALY":"270.9852","SEMIMAJOR_AXIS":"6917.887","RA_OF_ASC_NODE":"79.1705","COUNTRY_CODE":"US","REV_AT_EPOCH":"5106","LAUNCH_DATE":"2022-03-03","OBJECT_NAME":"STARLINK-3547","ECCENTRICITY":"0.00016950","MEAN_MOTION":"15.08837812","BSTAR":"0.00055162000000","TLE_LINE1":"1 51889U 22022AP  23024.16001807  .00008501  00000-0  55162-3 0  9999","PERIAPSIS":"538.579","REF_FRAME":"TEME","APOAPSIS":"540.925","CLASSIFICATION_TYPE":"U","TLE_LINE2":"2 51889  53.2147  79.1705 0001695  89.1334 270.9852 15.08837812 51061","MEAN_MOTION_DOT":"0.00008501","DECAY_DATE":null,"RCS_SIZE":"LARGE","OBJECT_ID":"2022-022AP","TIME_SYSTEM":"UTC"},{"EPOCH":"2023-01-24T10:22:33.852864","FILE":"3760170","OBJECT_TYPE":"PAYLOAD","MEAN_MOTION_DDOT":"0.0000000000000","CENTER_NAME":"EARTH","ARG_OF_PERICENTER":"93.3781","MEAN_ELEMENT_THEORY":"SGP4","PERIOD":"95.437","SITE":"AFETR","INCLINATION":"53.2145","EPHEMERIS_TYPE":"0","GP_ID":"223642131","ELEMENT_SET_NO":"999","NORAD_CAT_ID":"51890","MEAN_ANOMALY":"266.7354","RA_OF_ASC_NODE":"77.9443","SEMIMAJOR_AXIS":"6917.858","COUNTRY_CODE":"US","OBJECT_NAME":"STARLINK-3519","ECCENTRICITY":"0.00012470","MEAN_MOTION":"15.08847369","REV_AT_EPOCH":"5110","LAUNCH_DATE":"2022-03-03","BSTAR":"0.00085343000000","TLE_LINE1":"1 51890U 22022AQ  23024.43233626  .00013323  00000-0  85343-3 0  9999","PERIAPSIS":"538.860","APOAPSIS":"540.586","CLASSIFICATION_TYPE":"U","REF_FRAME":"TEME","MEAN_MOTION_DOT":"0.00013323","TLE_LINE2":"2 51890  53.2145  77.9443 0001247  93.3781 266.7354 15.08847369 51105","TIME_SYSTEM":"UTC","DECAY_DATE":null,"RCS_SIZE":"LARGE","OBJECT_ID":"2022-022AQ"},{"COUNTRY_CODE":"US","ECCENTRICITY":"0.00015190","MEAN_MOTION":"15.08844289","OBJECT_NAME":"STARLINK-3549","LAUNCH_DATE":"2022-03-03","REV_AT_EPOCH":"5115","BSTAR":"0.00078182000000","TLE_LINE1":"1 51891U 22022AR  23024.42129830  .00012178  00000-0  78182-3 0  9990","PERIAPSIS":"538.681","CLASSIFICATION_TYPE":"U","APOAPSIS":"540.783","REF_FRAME":"TEME","MEAN_MOTION_DOT":"0.00012178","TLE_LINE2":"2 51891  53.2147  77.9916 0001519  86.9306 273.1860 15.08844289 51153","TIME_SYSTEM":"UTC","OBJECT_ID":"2022-022AR","DECAY_DATE":null,"RCS_SIZE":"LARGE","EPOCH":"2023-01-24T10:06:40.173120","FILE":"3759853","OBJECT_TYPE":"PAYLOAD","CENTER_NAME":"EARTH","MEAN_MOTION_DDOT":"0.0000000000000","ARG_OF_PERICENTER":"86.9306","SITE":"AFETR","PERIOD":"95.437","MEAN_ELEMENT_THEORY":"SGP4","INCLINATION":"53.2147","ELEMENT_SET_NO":"999","EPHEMERIS_TYPE":"0","GP_ID":"223635631","MEAN_ANOMALY":"273.1860","NORAD_CAT_ID":"51891","SEMIMAJOR_AXIS":"6917.867","RA_OF_ASC_NODE":"77.9916"},{"REF_FRAME":"TEME","APOAPSIS":"540.640","CLASSIFICATION_TYPE":"U","PERIAPSIS":"538.867","RCS_SIZE":"LARGE","DECAY_DATE":null,"OBJECT_ID":"2022-022AS","TIME_SYSTEM":"UTC","TLE_LINE2":"2 51892  53.2121  81.8306 0001282  87.1816 272.9323 15.08837323 50970","MEAN_MOTION_DOT":"-0.00000937","REV_AT_EPOCH":"5097","LAUNCH_DATE":"2022-03-03","OBJECT_NAME":"STARLINK-3587","MEAN_MOTION":"15.08837323","ECCENTRICITY":"0.00012820","COUNTRY_CODE":"US","TLE_LINE1":"1 51892U 22022AS  23023.56752854 -.00000937  00000-0 -40769-4 0  9996","BSTAR":"-0.00004076900000","EPHEMERIS_TYPE":"0","GP_ID":"223620139","ELEMENT_SET_NO":"999","INCLINATION":"53.2121","SEMIMAJOR_AXIS":"6917.889","RA_OF_ASC_NODE":"81.8306","MEAN_ANOMALY":"272.9323","NORAD_CAT_ID":"51892","FILE":"3759115","EPOCH":"2023-01-23T13:37:14.465856","PERIOD":"95.438","MEAN_ELEMENT_THEORY":"SGP4","SITE":"AFETR","ARG_OF_PERICENTER":"87.1816","MEAN_MOTION_DDOT":"0.0000000000000","CENTER_NAME":"EARTH","OBJECT_TYPE":"PAYLOAD"}];
